NORAD_CAT_ID,OBJECT_NAME,OBJECT_TYPE,EPOCH,MEAN_MOTION,ECCENTRICITY,INCLINATION,RA_OF_ASC_NODE,ARG_OF_PERICENTER,MEAN_ANOMALY,BSTAR,MEAN_MOTION_DOT,MEAN_MOTION_DDOT,TLE_LINE0,TLE_LINE1,TLE_LINE2,SEMIMAJOR_AXIS,PERIOD,APOGEE,PERIGEE,DECAYED
51724.0,STARLINK-3529,PAYLOAD,2023-06-13 08:22:20,15.08837063,0.0001211,53.2162,139.8214,86.6633,273.4498,-6.2578e-06,-3.87e-06,0.0,0 STARLINK-3529,1 51724U 22016L   23164.34884331 -.00000387  00000-0 -62578-5 0  9993,2 51724  53.2162 139.8214 0001211  86.6633 273.4498 15.08837063 72406,6917.889,95.438,540.592,538.917,0.0
51724.0,STARLINK-3529,PAYLOAD,2023-06-14 01:51:34,15.08840341,0.0001247,53.2166,136.5505,88.8076,271.3059,-2.9585e-05,-7.59e-06,0.0,0 STARLINK-3529,1 51724U 22016L   23165.07748217 -.00000759  00000-0 -29585-4 0  9999,2 51724  53.2166 136.5505 0001247  88.8076 271.3059 15.08840341 72516,6917.879,95.438,540.607,538.882,0.0
51724.0,STARLINK-3529,PAYLOAD,2023-06-15 03:17:45,15.08834746,0.0001196,53.217,131.7928,87.7428,272.3701,-2.3927e-05,-6.69e-06,0.0,0 STARLINK-3529,1 51724U 22016L   23166.13732769 -.00000669  00000-0 -23927-4 0  9996,2 51724  53.2170 131.7928 0001196  87.7428 272.3701 15.08834746 73731,6917.896,95.438,540.589,538.934,0.0
51724.0,STARLINK-3529,PAYLOAD,2023-06-15 04:53:08,15.08835817,0.0001171,53.2167,131.4967,84.4541,275.6584,-1.0448e-05,-4.54e-06,0.0,0 STARLINK-3529,1 51724U 22016L   23166.20356698 -.00000454  00000-0 -10448-4 0  9993,2 51724  53.2167 131.4967 0001171  84.4541 275.6584 15.08835817 72688,6917.893,95.438,540.568,538.948,0.0
51724.0,STARLINK-3529,PAYLOAD,2023-06-16 06:19:18,15.08841411,0.0001245,53.2167,126.7397,96.092,264.0214,6.7288e-05,7.83e-06,0.0,0 STARLINK-3529,1 51724U 22016L   23167.26340364  .00000783  00000-0  67288-4 0  9990,2 51724  53.2167 126.7397 0001245  96.0920 264.0214 15.08841411 73909,6917.876,95.437,540.602,538.88,0.0
51724.0,STARLINK-3529,PAYLOAD,2023-06-16 14:16:13,15.08841334,0.0001201,53.2168,125.2521,82.0906,278.0223,3.0908e-05,2.04e-06,0.0,0 STARLINK-3529,1 51724U 22016L   23167.59460482  .00000204  00000-0  30908-4 0  9997,2 51724  53.2168 125.2521 0001201  82.0906 278.0223 15.08841334 72890,6917.876,95.437,540.572,538.91,0.0
51724.0,STARLINK-3529,PAYLOAD,2023-06-17 07:45:29,15.08827061,0.0001296,53.2169,121.9821,89.43,270.6841,-1.2501e-05,-4.87e-06,0.0,0 STARLINK-3529,1 51724U 22016L   23168.32325989 -.00000487  00000-0 -12501-4 0  9995,2 51724  53.2169 121.9821 0001296  89.4300 270.6841 15.08827061 74066,6917.92,95.438,540.682,538.888,0.0
51724.0,STARLINK-3529,PAYLOAD,2023-06-17 20:28:34,15.08832942,0.0001256,53.2166,119.6017,86.8548,273.2588,-3.7546e-05,-8.85e-06,0.0,0 STARLINK-3529,1 51724U 22016L   23168.85317974 -.00000885  00000-0 -37546-4 0  9996,2 51724  53.2166 119.6017 0001256  86.8548 273.2588 15.08832942 73087,6917.902,95.438,540.636,538.898,0.0
51724.0,STARLINK-3529,PAYLOAD,2023-06-18 02:50:07,15.08835224,0.0001227,53.2162,118.4127,85.2224,274.8909,-1.6441e-05,-5.49e-06,0.0,0 STARLINK-3529,1 51724U 22016L   23169.11813837 -.00000549  00000-0 -16441-4 0  9993,2 51724  53.2162 118.4127 0001227  85.2224 274.8909 15.08835224 74186,6917.895,95.438,540.609,538.911,0.0
51724.0,STARLINK-3529,PAYLOAD,2023-06-18 04:25:30,15.08836297,0.0001128,53.216,118.115,74.8236,285.2881,2.4483e-06,-2.49e-06,0.0,0 STARLINK-3529,1 51724U 22016L   23169.18437753 -.00000249  00000-0  24483-5 0  9991,2 51724  53.2160 118.1150 0001128  74.8236 285.2881 15.08836297 73134,6917.892,95.438,540.537,538.976,0.0
51724.0,STARLINK-3529,PAYLOAD,2023-06-18 13:57:48,15.0884474,0.0001152,53.2162,116.3308,90.1936,269.9188,2.8249e-05,1.62e-06,0.0,0 STARLINK-3529,1 51724U 22016L   23169.58181112  .00000162  00000-0  28249-4 0  9996,2 51724  53.2162 116.3308 0001152  90.1936 269.9188 15.08844740 74251,6917.866,95.437,540.528,538.934,0.0
51724.0,STARLINK-3529,PAYLOAD,2023-06-19 05:51:39,15.08822169,0.0001222,53.2164,113.3569,90.4664,269.6469,0.00050911,7.82e-05,0.0,0 STARLINK-3529,1 51724U 22016L   23170.24420798  .00007820  00000-0  50911-3 0  9995,2 51724  53.2164 113.3569 0001222  90.4664 269.6469 15.08822169 74359,6917.935,95.439,540.645,538.955,0.0
51724.0,STARLINK-3529,PAYLOAD,2023-06-20 05:42:26,15.08841384,0.0001182,53.2171,108.8946,94.3526,265.7601,1.6472e-05,-2.6e-07,0.0,0 STARLINK-3529,1 51724U 22016L   23171.23781080 -.00000026  00000-0  16472-4 0  9996,2 51724  53.2171 108.8946 0001182  94.3526 265.7601 15.08841384 73444,6917.876,95.437,540.559,538.923,0.0
51724.0,STARLINK-3529,PAYLOAD,2023-06-20 20:00:55,15.08846904,0.0001384,53.2173,106.2167,102.7168,257.3979,-0.00015648,-2.778e-05,0.0,0 STARLINK-3529,1 51724U 22016L   23171.83397273 -.00002778  00000-0 -15648-3 0  9999,2 51724  53.2173 106.2167 0001384 102.7168 257.3979 15.08846904 73531,6917.859,95.437,540.682,538.767,0.0
51724.0,STARLINK-3529,PAYLOAD,2023-06-21 02:22:27,15.08842604,0.0001159,53.2159,105.0311,85.037,275.0755,-5.0201e-05,-1.087e-05,0.0,0 STARLINK-3529,1 51724U 22016L   23172.09892973 -.00001087  00000-0 -50201-4 0  9992,2 51724  53.2159 105.0311 0001159  85.0370 275.0755 15.08842604 74635,6917.872,95.437,540.539,538.936,0.0
51724.0,STARLINK-3529,PAYLOAD,2023-06-22 03:48:38,15.08839334,0.0001162,53.2174,100.2746,91.6804,268.4321,5.3966e-08,-2.87e-06,0.0,0 STARLINK-3529,1 51724U 22016L   23173.15877332 -.00000287  00000-0  53966-7 0  9996,2 51724  53.2174 100.2746 0001162  91.6804 268.4321 15.08839334 74798,6917.882,95.438,540.551,538.944,0.0
51724.0,STARLINK-3529,PAYLOAD,2023-06-23 05:14:48,15.08839398,0.0001144,53.2171,95.5164,92.3629,267.7494,8.1198e-05,1.005e-05,0.0,0 STARLINK-3529,1 51724U 22016L   23174.21861385  .00001005  00000-0  81198-4 0  9998,2 51724  53.2171  95.5164 0001144  92.3629 267.7494 15.08839398 74959,6917.882,95.438,540.539,538.956,0.0
51724.0,STARLINK-3529,PAYLOAD,2023-06-24 01:54:49,15.08839274,0.000112,53.2175,91.6513,90.2736,269.8385,6.5412e-06,-1.84e-06,0.0,0 STARLINK-3529,1 51724U 22016L   23175.07973916 -.00000184  00000-0  65412-5 0  9997,2 51724  53.2175  91.6513 0001120  90.2736 269.8385 15.08839274 75088,6917.883,95.438,540.522,538.973,0.0
51724.0,STARLINK-3529,PAYLOAD,2023-06-25 03:20:59,15.08843702,0.0001229,53.2171,86.892,86.553,273.5603,7.7862e-05,9.52e-06,0.0,0 STARLINK-3529,1 51724U 22016L   23176.13957634  .00000952  00000-0  77862-4 0  9997,2 51724  53.2171  86.8920 0001229  86.5530 273.5603 15.08843702 75246,6917.869,95.437,540.584,538.884,0.0
51724.0,STARLINK-3529,PAYLOAD,2023-06-26 00:01:00,15.08837529,0.0001124,53.2168,83.0284,76.3328,283.7789,7.1604e-05,8.52e-06,0.0,0 STARLINK-3529,1 51724U 22016L   23177.00070087  .00000852  00000-0  71604-4 0  9999,2 51724  53.2168  83.0284 0001124  76.3328 283.7789 15.08837529 75372,6917.888,95.438,540.531,538.975,0.0
51724.0,STARLINK-3529,PAYLOAD,2023-06-26 03:11:46,15.08846598,0.0001057,53.216,82.4318,84.5077,275.6036,4.8188e-05,4.79e-06,0.0,0 STARLINK-3529,1 51724U 22016L   23177.13317530  .00000479  00000-0  48188-4 0  9996,2 51724  53.2160  82.4318 0001057  84.5077 275.6036 15.08846598 75395,6917.86,95.437,540.456,538.994,0.0
51724.0,STARLINK-3529,PAYLOAD,2023-06-26 17:30:15,15.0883769,0.000129,53.2172,79.7564,88.3335,271.7805,6.0177e-05,6.7e-06,0.0,0 STARLINK-3529,1 51724U 22016L   23177.72934053  .00000670  00000-0  60177-4 0  9991,2 51724  53.2172  79.7564 0001290  88.3335 271.7805 15.08837690 75482,6917.887,95.438,540.645,538.86,0.0
51724.0,STARLINK-3529,PAYLOAD,2023-06-27 03:02:33,15.0884702,0.000127,53.2175,77.9711,93.3062,266.8076,3.9197e-05,3.36e-06,0.0,0 STARLINK-3529,1 51724U 22016L   23178.12677483  .00000336  00000-0  39197-4 0  9994,2 51724  53.2175  77.9711 0001270  93.3062 266.8076 15.08847020 75540,6917.859,95.437,540.602,538.845,0.0
51724.0,STARLINK-3529,PAYLOAD,2023-06-27 20:31:48,15.08836257,0.0001328,53.2182,74.7019,87.5552,272.5592,3.1163e-05,2.08e-06,0.0,0 STARLINK-3529,1 51724U 22016L   23178.85542212  .00000208  00000-0  31163-4 0  9998,2 51724  53.2182  74.7019 0001328  87.5552 272.5592 15.08836257 75656,6917.892,95.438,540.676,538.838,0.0
51724.0,STARLINK-3529,PAYLOAD,2023-06-28 02:53:20,15.08845779,0.0001279,53.2175,73.5105,90.9814,269.1325,1.0396e-05,-1.22e-06,0.0,0 STARLINK-3529,1 51724U 22016L   23179.12037609 -.00000122  00000-0  10396-4 0  9999,2 51724  53.2175  73.5105 0001279  90.9814 269.1325 15.08845779 75694,6917.863,95.437,540.613,538.843,0.0
51724.0,STARLINK-3529,PAYLOAD,2023-06-29 02:44:07,15.08840399,0.0001195,53.2173,69.0495,88.3231,271.7898,3.1745e-06,-2.37e-06,0.0,0 STARLINK-3529,1 51724U 22016L   23180.11398072 -.00000237  00000-0  31745-5 0  9993,2 51724  53.2173  69.0495 0001195  88.3231 271.7898 15.08840399 75849,6917.879,95.438,540.571,538.917,0.0
51724.0,STARLINK-3529,PAYLOAD,2023-07-01 00:50:19,15.08840265,0.0001197,53.2174,60.4285,92.7087,267.4042,2.2609e-05,7.2e-07,0.0,0 STARLINK-3529,1 51724U 22016L   23182.03494542  .00000072  00000-0  22609-4 0  9999,2 51724  53.2174  60.4285 0001197  92.7087 267.4042 15.08840265 76130,6917.88,95.438,540.573,538.917,0.0
51724.0,STARLINK-3529,PAYLOAD,2023-07-02 08:38:02,15.08837449,0.0001282,53.2183,54.4819,89.5522,270.5617,4.2182e-05,3.83e-06,0.0,0 STARLINK-3529,1 51724U 22016L   23183.35975034  .00000383  00000-0  42182-4 0  9998,2 51724  53.2183  54.4819 0001282  89.5522 270.5617 15.08837449 76334,6917.888,95.438,540.64,538.866,0.0
51724.0,STARLINK-3529,PAYLOAD,2023-07-03 00:31:53,15.08846435,0.0001221,53.2177,51.5072,89.7903,270.3229,8.2625e-05,1.028e-05,0.0,0 STARLINK-3529,1 51724U 22016L   23184.02214320  .00001028  00000-0  82625-4 0  9990,2 51724  53.2177  51.5072 0001221  89.7903 270.3229 15.08846435 76437,6917.861,95.437,540.57,538.881,0.0
51724.0,STARLINK-3529,PAYLOAD,2023-07-03 08:28:49,15.08840576,0.0001168,53.2173,50.0195,86.0749,274.0377,5.6461e-06,-1.98e-06,0.0,0 STARLINK-3529,1 51724U 22016L   23184.35334852 -.00000198  00000-0  56461-5 0  9997,2 51724  53.2173  50.0195 0001168  86.0749 274.0377 15.08840576 76481,6917.879,95.438,540.552,538.936,0.0
